HIMAWARI-8              
1 40267U 14060A   23345.88115369 -.00000246  00000+0  00000+0 0  9999
2 40267   0.0185 254.7657 0000642  44.1117 239.3206  1.00271198 33551
